STARLINK-36108          
1 66868U 25281W   25359.91668981 -.00414899  00000+0 -74000-2 0  9993
2 66868  43.0004  42.5042 0001460 244.8623 174.4487 15.50758843  3345
STARLINK-36092          
1 66869U 25281X   25359.91668981 -.00416503  00000+0 -74301-2 0  9992
2 66869  43.0004  42.4995 0001464 242.8136 178.4151 15.50758805  3534
STARLINK-36114          
1 66870U 25281Y   25359.91668981 -.00409570  00000+0 -73004-2 0  9999
2 66870  43.0004  42.4943 0001362 240.5523 182.5896 15.50757479  3405
STARLINK-36095          
1 66871U 25281Z   25359.91668981 -.00415258  00000+0 -74071-2 0  9995
2 66871  43.0003  42.4894 0001263 234.6246 190.4365 15.50758444  3532
STARLINK-36082          
1 66872U 25281AA  25359.91668981 -.00413600  00000+0 -73762-2 0  9991
2 66872  43.0006  42.4840 0001553 241.4058 185.5726 15.50756175  3407
STARLINK-36128          
1 66873U 25281AB  25359.91668981 -.00412264  00000+0 -73513-2 0  9991
2 66873  43.0007  42.4689 0001487 236.4282 196.2977 15.50755550  3547
STARLINK-36129          
1 66874U 25281AC  25359.91668981 -.00408621  00000+0 -72833-2 0  9998
2 66874  43.0008  42.4790 0001436 243.0197 185.8706 15.50754440  3535
STARLINK-36053          
1 66875U 25281AD  25359.91668981 -.00399949  00000+0 -71226-2 0  9996
2 66875  43.0007  42.4635 0001573 239.8109 194.8345 15.50746931  3547
STARLINK-35702          
1 66876U 25281AE  25359.91668981 -.00404285  00000+0 -72033-2 0  9994
2 66876  43.0005  42.4742 0001406 241.2248 189.5870 15.50749694  3533
ZQ-3 R/B                
1 66877U 25282A   25359.24019110  .00979538  79360-5  16487-3 0  9995
2 66877  56.9492   8.8930 0673336 242.0471 111.0851 14.85076412  3230
STARLINK-35866          
1 66878U 25283A   25359.91668981 -.01937342  00000+0 -27840-1 0  9999
2 66878  53.1595   8.2219 0001610  91.0817 127.3647 15.58895150  4541
STARLINK-35749          
1 66879U 25283B   25359.91668981 -.01927710  00000+0 -27691-1 0  9992
2 66879  53.1596   8.2133 0001578  93.5580 128.7274 15.58887394  4547
