CCSDS_OMM_VERS = 2.0
CREATION_DATE  = 
ORIGINATOR     = 

OBJECT_NAME    = STARLINK-36108
OBJECT_ID      = 2025-281W
CENTER_NAME    = EARTH
REF_FRAME      = TEME
TIME_SYSTEM    = UTC
MEAN_ELEMENT_THEORY = SGP/SGP4

EPOCH          = 2025-12-25T22:00:01.999584
MEAN_MOTION    = 15.50758843
ECCENTRICITY   = .00014605
INCLINATION    = 43.0004
RA_OF_ASC_NODE = 42.5042
ARG_OF_PERICENTER = 244.8623
MEAN_ANOMALY   = 174.4487

EPHEMERIS_TYPE = 0
CLASSIFICATION_TYPE = U
NORAD_CAT_ID   = 66868
ELEMENT_SET_NO = 999
REV_AT_EPOCH   = 334
BSTAR          = -.7399983E-2
MEAN_MOTION_DOT = -.414899E-2
MEAN_MOTION_DDOT = 0

CCSDS_OMM_VERS = 2.0
CREATION_DATE  = 
ORIGINATOR     = 

OBJECT_NAME    = STARLINK-36092
OBJECT_ID      = 2025-281X
CENTER_NAME    = EARTH
REF_FRAME      = TEME
TIME_SYSTEM    = UTC
MEAN_ELEMENT_THEORY = SGP/SGP4

EPOCH          = 2025-12-25T22:00:01.999584
MEAN_MOTION    = 15.50758805
ECCENTRICITY   = .0001464
INCLINATION    = 43.0004
RA_OF_ASC_NODE = 42.4995
ARG_OF_PERICENTER = 242.8136
MEAN_ANOMALY   = 178.4151

EPHEMERIS_TYPE = 0
CLASSIFICATION_TYPE = U
NORAD_CAT_ID   = 66869
ELEMENT_SET_NO = 999
REV_AT_EPOCH   = 353
BSTAR          = -.74301092E-2
MEAN_MOTION_DOT = -.416503E-2
MEAN_MOTION_DDOT = 0

CCSDS_OMM_VERS = 2.0
CREATION_DATE  = 
ORIGINATOR     = 

OBJECT_NAME    = STARLINK-36114
OBJECT_ID      = 2025-281Y
CENTER_NAME    = EARTH
REF_FRAME      = TEME
TIME_SYSTEM    = UTC
MEAN_ELEMENT_THEORY = SGP/SGP4

EPOCH          = 2025-12-25T22:00:01.999584
MEAN_MOTION    = 15.50757479
ECCENTRICITY   = .00013624
INCLINATION    = 43.0004
RA_OF_ASC_NODE = 42.4943
ARG_OF_PERICENTER = 240.5523
MEAN_ANOMALY   = 182.5896

EPHEMERIS_TYPE = 0
CLASSIFICATION_TYPE = U
NORAD_CAT_ID   = 66870
ELEMENT_SET_NO = 999
REV_AT_EPOCH   = 340
BSTAR          = -.73004347E-2
MEAN_MOTION_DOT = -.40957E-2
MEAN_MOTION_DDOT = 0

CCSDS_OMM_VERS = 2.0
CREATION_DATE  = 
ORIGINATOR     = 

OBJECT_NAME    = STARLINK-36095
OBJECT_ID      = 2025-281Z
CENTER_NAME    = EARTH
REF_FRAME      = TEME
TIME_SYSTEM    = UTC
MEAN_ELEMENT_THEORY = SGP/SGP4

EPOCH          = 2025-12-25T22:00:01.999584
MEAN_MOTION    = 15.50758444
ECCENTRICITY   = .00012632
INCLINATION    = 43.0003
RA_OF_ASC_NODE = 42.4894
ARG_OF_PERICENTER = 234.6246
MEAN_ANOMALY   = 190.4365

EPHEMERIS_TYPE = 0
CLASSIFICATION_TYPE = U
NORAD_CAT_ID   = 66871
ELEMENT_SET_NO = 999
REV_AT_EPOCH   = 353
BSTAR          = -.74070766E-2
MEAN_MOTION_DOT = -.415258E-2
MEAN_MOTION_DDOT = 0

CCSDS_OMM_VERS = 2.0
CREATION_DATE  = 
ORIGINATOR     = 

OBJECT_NAME    = STARLINK-36082
OBJECT_ID      = 2025-281AA
CENTER_NAME    = EARTH
REF_FRAME      = TEME
TIME_SYSTEM    = UTC
MEAN_ELEMENT_THEORY = SGP/SGP4

EPOCH          = 2025-12-25T22:00:01.999584
MEAN_MOTION    = 15.50756175
ECCENTRICITY   = .00015534
INCLINATION    = 43.0006
RA_OF_ASC_NODE = 42.4840
ARG_OF_PERICENTER = 241.4058
MEAN_ANOMALY   = 185.5726

EPHEMERIS_TYPE = 0
CLASSIFICATION_TYPE = U
NORAD_CAT_ID   = 66872
ELEMENT_SET_NO = 999
REV_AT_EPOCH   = 340
BSTAR          = -.73761555E-2
MEAN_MOTION_DOT = -.4136E-2
MEAN_MOTION_DDOT = 0

CCSDS_OMM_VERS = 2.0
CREATION_DATE  = 
ORIGINATOR     = 

OBJECT_NAME    = STARLINK-36128
OBJECT_ID      = 2025-281AB
CENTER_NAME    = EARTH
REF_FRAME      = TEME
TIME_SYSTEM    = UTC
MEAN_ELEMENT_THEORY = SGP/SGP4

EPOCH          = 2025-12-25T22:00:01.999584
MEAN_MOTION    = 15.50755550
ECCENTRICITY   = .00014871
INCLINATION    = 43.0007
RA_OF_ASC_NODE = 42.4689
ARG_OF_PERICENTER = 236.4282
MEAN_ANOMALY   = 196.2977

EPHEMERIS_TYPE = 0
CLASSIFICATION_TYPE = U
NORAD_CAT_ID   = 66873
ELEMENT_SET_NO = 999
REV_AT_EPOCH   = 354
BSTAR          = -.73513243E-2
MEAN_MOTION_DOT = -.412264E-2
MEAN_MOTION_DDOT = 0

CCSDS_OMM_VERS = 2.0
CREATION_DATE  = 
ORIGINATOR     = 

OBJECT_NAME    = STARLINK-36129
OBJECT_ID      = 2025-281AC
CENTER_NAME    = EARTH
REF_FRAME      = TEME
TIME_SYSTEM    = UTC
MEAN_ELEMENT_THEORY = SGP/SGP4

EPOCH          = 2025-12-25T22:00:01.999584
MEAN_MOTION    = 15.50754440
ECCENTRICITY   = .00014363
INCLINATION    = 43.0008
RA_OF_ASC_NODE = 42.4790
ARG_OF_PERICENTER = 243.0197
MEAN_ANOMALY   = 185.8706

EPHEMERIS_TYPE = 0
CLASSIFICATION_TYPE = U
NORAD_CAT_ID   = 66874
ELEMENT_SET_NO = 999
REV_AT_EPOCH   = 353
BSTAR          = -.72833336E-2
MEAN_MOTION_DOT = -.408621E-2
MEAN_MOTION_DDOT = 0

CCSDS_OMM_VERS = 2.0
CREATION_DATE  = 
ORIGINATOR     = 

OBJECT_NAME    = STARLINK-36053
OBJECT_ID      = 2025-281AD
CENTER_NAME    = EARTH
REF_FRAME      = TEME
TIME_SYSTEM    = UTC
MEAN_ELEMENT_THEORY = SGP/SGP4

EPOCH          = 2025-12-25T22:00:01.999584
MEAN_MOTION    = 15.50746931
ECCENTRICITY   = .00015739
INCLINATION    = 43.0007
RA_OF_ASC_NODE = 42.4635
ARG_OF_PERICENTER = 239.8109
MEAN_ANOMALY   = 194.8345

EPHEMERIS_TYPE = 0
CLASSIFICATION_TYPE = U
NORAD_CAT_ID   = 66875
ELEMENT_SET_NO = 999
REV_AT_EPOCH   = 354
BSTAR          = -.71225802E-2
MEAN_MOTION_DOT = -.399949E-2
MEAN_MOTION_DDOT = 0

CCSDS_OMM_VERS = 2.0
CREATION_DATE  = 
ORIGINATOR     = 

OBJECT_NAME    = STARLINK-35702
OBJECT_ID      = 2025-281AE
CENTER_NAME    = EARTH
REF_FRAME      = TEME
TIME_SYSTEM    = UTC
MEAN_ELEMENT_THEORY = SGP/SGP4

EPOCH          = 2025-12-25T22:00:01.999584
MEAN_MOTION    = 15.50749694
ECCENTRICITY   = .00014064
INCLINATION    = 43.0005
RA_OF_ASC_NODE = 42.4742
ARG_OF_PERICENTER = 241.2248
MEAN_ANOMALY   = 189.5870

EPHEMERIS_TYPE = 0
CLASSIFICATION_TYPE = U
NORAD_CAT_ID   = 66876
ELEMENT_SET_NO = 999
REV_AT_EPOCH   = 353
BSTAR          = -.72032993E-2
MEAN_MOTION_DOT = -.404285E-2
MEAN_MOTION_DDOT = 0

CCSDS_OMM_VERS = 2.0
CREATION_DATE  = 
ORIGINATOR     = 

OBJECT_NAME    = ZQ-3 R/B
OBJECT_ID      = 2025-282A
CENTER_NAME    = EARTH
REF_FRAME      = TEME
TIME_SYSTEM    = UTC
MEAN_ELEMENT_THEORY = SGP/SGP4

EPOCH          = 2025-12-25T05:45:52.511040
MEAN_MOTION    = 14.85076412
ECCENTRICITY   = .0673336
INCLINATION    = 56.9492
RA_OF_ASC_NODE = 8.8930
ARG_OF_PERICENTER = 242.0471
MEAN_ANOMALY   = 111.0851

EPHEMERIS_TYPE = 0
CLASSIFICATION_TYPE = U
NORAD_CAT_ID   = 66877
ELEMENT_SET_NO = 999
REV_AT_EPOCH   = 323
BSTAR          = .16487E-3
MEAN_MOTION_DOT = .979538E-2
MEAN_MOTION_DDOT = .7936E-5

CCSDS_OMM_VERS = 2.0
CREATION_DATE  = 
ORIGINATOR     = 

OBJECT_NAME    = STARLINK-35866
OBJECT_ID      = 2025-283A
CENTER_NAME    = EARTH
REF_FRAME      = TEME
TIME_SYSTEM    = UTC
MEAN_ELEMENT_THEORY = SGP/SGP4

EPOCH          = 2025-12-25T22:00:01.999584
MEAN_MOTION    = 15.58895150
ECCENTRICITY   = .00016106
INCLINATION    = 53.1595
RA_OF_ASC_NODE = 8.2219
ARG_OF_PERICENTER = 91.0817
MEAN_ANOMALY   = 127.3647

EPHEMERIS_TYPE = 0
CLASSIFICATION_TYPE = U
NORAD_CAT_ID   = 66878
ELEMENT_SET_NO = 999
REV_AT_EPOCH   = 454
BSTAR          = -.27839851E-1
MEAN_MOTION_DOT = -.1937342E-1
MEAN_MOTION_DDOT = 0

CCSDS_OMM_VERS = 2.0
CREATION_DATE  = 
ORIGINATOR     = 

OBJECT_NAME    = STARLINK-35749
OBJECT_ID      = 2025-283B
CENTER_NAME    = EARTH
REF_FRAME      = TEME
TIME_SYSTEM    = UTC
MEAN_ELEMENT_THEORY = SGP/SGP4

EPOCH          = 2025-12-25T22:00:01.999584
MEAN_MOTION    = 15.58887394
ECCENTRICITY   = .00015789
INCLINATION    = 53.1596
RA_OF_ASC_NODE = 8.2133
ARG_OF_PERICENTER = 93.5580
MEAN_ANOMALY   = 128.7274

EPHEMERIS_TYPE = 0
CLASSIFICATION_TYPE = U
NORAD_CAT_ID   = 66879
ELEMENT_SET_NO = 999
REV_AT_EPOCH   = 454
BSTAR          = -.27691308E-1
MEAN_MOTION_DOT = -.192771E-1
MEAN_MOTION_DDOT = 0

